CCSDS_OMM_VERS = 2.0
CREATION_DATE  = 
ORIGINATOR     = 

OBJECT_NAME    = SL-16 R/B
OBJECT_ID      = 1998-043G
CENTER_NAME    = EARTH
REF_FRAME      = TEME
TIME_SYSTEM    = UTC
MEAN_ELEMENT_THEORY = SGP/SGP4

EPOCH          = 2026-01-18T20:17:04.835040
MEAN_MOTION    = 14.26035182
ECCENTRICITY   = .00102334
INCLINATION    = 98.8176
RA_OF_ASC_NODE = 331.8808
ARG_OF_PERICENTER = 153.5325
MEAN_ANOMALY   = 206.6379

EPHEMERIS_TYPE = 0
CLASSIFICATION_TYPE = U
NORAD_CAT_ID   = 25400
ELEMENT_SET_NO = 999
REV_AT_EPOCH   = 43188
BSTAR          = .34676107E-4
MEAN_MOTION_DOT = .38E-6
MEAN_MOTION_DDOT = 0

CCSDS_OMM_VERS = 2.0
CREATION_DATE  = 
ORIGINATOR     = 

OBJECT_NAME    = SL-16 R/B
OBJECT_ID      = 1998-045B
CENTER_NAME    = EARTH
REF_FRAME      = TEME
TIME_SYSTEM    = UTC
MEAN_ELEMENT_THEORY = SGP/SGP4

EPOCH          = 2026-01-18T23:43:40.821024
MEAN_MOTION    = 14.16182207
ECCENTRICITY   = .00052809
INCLINATION    = 71.0117
RA_OF_ASC_NODE = 286.0945
ARG_OF_PERICENTER = 106.9225
MEAN_ANOMALY   = 253.2478

EPHEMERIS_TYPE = 0
CLASSIFICATION_TYPE = U
NORAD_CAT_ID   = 25407
ELEMENT_SET_NO = 999
REV_AT_EPOCH   = 42006
BSTAR          = .17683605E-3
MEAN_MOTION_DOT = .302E-5
MEAN_MOTION_DDOT = 0

CCSDS_OMM_VERS = 2.0
CREATION_DATE  = 
ORIGINATOR     = 

OBJECT_NAME    = ISS (ZARYA)
OBJECT_ID      = 1998-067A
CENTER_NAME    = EARTH
REF_FRAME      = TEME
TIME_SYSTEM    = UTC
MEAN_ELEMENT_THEORY = SGP/SGP4

EPOCH          = 2026-01-18T21:14:35.627712
MEAN_MOTION    = 15.49391154
ECCENTRICITY   = .00078011
INCLINATION    = 51.6336
RA_OF_ASC_NODE = 318.5838
ARG_OF_PERICENTER = 33.5888
MEAN_ANOMALY   = 326.5594

EPHEMERIS_TYPE = 0
CLASSIFICATION_TYPE = U
NORAD_CAT_ID   = 25544
ELEMENT_SET_NO = 999
REV_AT_EPOCH   = 54861
BSTAR          = .23754211E-3
MEAN_MOTION_DOT = .12847E-3
MEAN_MOTION_DDOT = 0

CCSDS_OMM_VERS = 2.0
CREATION_DATE  = 
ORIGINATOR     = 

OBJECT_NAME    = CZ-4B R/B
OBJECT_ID      = 1999-025C
CENTER_NAME    = EARTH
REF_FRAME      = TEME
TIME_SYSTEM    = UTC
MEAN_ELEMENT_THEORY = SGP/SGP4

EPOCH          = 2026-01-18T23:59:18.989376
MEAN_MOTION    = 14.18253096
ECCENTRICITY   = .00379518
INCLINATION    = 98.6716
RA_OF_ASC_NODE = 64.4367
ARG_OF_PERICENTER = 127.0296
MEAN_ANOMALY   = 295.8559

EPHEMERIS_TYPE = 0
CLASSIFICATION_TYPE = U
NORAD_CAT_ID   = 25732
ELEMENT_SET_NO = 999
REV_AT_EPOCH   = 38112
BSTAR          = .44489005E-4
MEAN_MOTION_DOT = .49E-6
MEAN_MOTION_DDOT = 0

CCSDS_OMM_VERS = 2.0
CREATION_DATE  = 
ORIGINATOR     = 

OBJECT_NAME    = OKEAN-O
OBJECT_ID      = 1999-039A
CENTER_NAME    = EARTH
REF_FRAME      = TEME
TIME_SYSTEM    = UTC
MEAN_ELEMENT_THEORY = SGP/SGP4

EPOCH          = 2026-01-18T21:38:33.292608
MEAN_MOTION    = 14.80233278
ECCENTRICITY   = .00017706
INCLINATION    = 97.9545
RA_OF_ASC_NODE = 79.2729
ARG_OF_PERICENTER = 104.8462
MEAN_ANOMALY   = 255.2946

EPHEMERIS_TYPE = 0
CLASSIFICATION_TYPE = U
NORAD_CAT_ID   = 25860
ELEMENT_SET_NO = 999
REV_AT_EPOCH   = 42702
BSTAR          = .97254128E-4
MEAN_MOTION_DOT = .687E-5
MEAN_MOTION_DDOT = 0

CCSDS_OMM_VERS = 2.0
CREATION_DATE  = 
ORIGINATOR     = 

OBJECT_NAME    = SL-16 R/B
OBJECT_ID      = 1999-039B
CENTER_NAME    = EARTH
REF_FRAME      = TEME
TIME_SYSTEM    = UTC
MEAN_ELEMENT_THEORY = SGP/SGP4

EPOCH          = 2026-01-18T15:48:30.280320
MEAN_MOTION    = 14.81645663
ECCENTRICITY   = .00159796
INCLINATION    = 98.0070
RA_OF_ASC_NODE = 77.8029
ARG_OF_PERICENTER = 62.3847
MEAN_ANOMALY   = 297.8986

EPHEMERIS_TYPE = 0
CLASSIFICATION_TYPE = U
NORAD_CAT_ID   = 25861
ELEMENT_SET_NO = 999
REV_AT_EPOCH   = 42945
BSTAR          = .7262803E-4
MEAN_MOTION_DOT = .518E-5
MEAN_MOTION_DDOT = 0

CCSDS_OMM_VERS = 2.0
CREATION_DATE  = 
ORIGINATOR     = 

OBJECT_NAME    = DELTA 2 R/B
OBJECT_ID      = 1999-041E
CENTER_NAME    = EARTH
REF_FRAME      = TEME
TIME_SYSTEM    = UTC
MEAN_ELEMENT_THEORY = SGP/SGP4

EPOCH          = 2026-01-18T17:51:30.738528
MEAN_MOTION    = 14.11570800
ECCENTRICITY   = .05034263
INCLINATION    = 51.7626
RA_OF_ASC_NODE = 140.7159
ARG_OF_PERICENTER = 200.8687
MEAN_ANOMALY   = 157.1024

EPHEMERIS_TYPE = 0
CLASSIFICATION_TYPE = U
NORAD_CAT_ID   = 25876
ELEMENT_SET_NO = 999
REV_AT_EPOCH   = 35597
BSTAR          = .42498561E-3
MEAN_MOTION_DOT = .2409E-4
MEAN_MOTION_DDOT = 0

CCSDS_OMM_VERS = 2.0
CREATION_DATE  = 
ORIGINATOR     = 

OBJECT_NAME    = HELIOS 1B
OBJECT_ID      = 1999-064A
CENTER_NAME    = EARTH
REF_FRAME      = TEME
TIME_SYSTEM    = UTC
MEAN_ELEMENT_THEORY = SGP/SGP4

EPOCH          = 2026-01-19T00:08:25.889280
MEAN_MOTION    = 14.87451919
ECCENTRICITY   = .00008325
INCLINATION    = 98.1749
RA_OF_ASC_NODE = 279.7789
ARG_OF_PERICENTER = 135.6059
MEAN_ANOMALY   = 224.5223

EPHEMERIS_TYPE = 0
CLASSIFICATION_TYPE = U
NORAD_CAT_ID   = 25977
ELEMENT_SET_NO = 999
REV_AT_EPOCH   = 67787
BSTAR          = .18392887E-3
MEAN_MOTION_DOT = .1607E-4
MEAN_MOTION_DDOT = 0

CCSDS_OMM_VERS = 2.0
CREATION_DATE  = 
ORIGINATOR     = 

OBJECT_NAME    = TERRA
OBJECT_ID      = 1999-068A
CENTER_NAME    = EARTH
REF_FRAME      = TEME
TIME_SYSTEM    = UTC
MEAN_ELEMENT_THEORY = SGP/SGP4

EPOCH          = 2026-01-18T22:08:58.291296
MEAN_MOTION    = 14.60947932
ECCENTRICITY   = .00020861
INCLINATION    = 97.9692
RA_OF_ASC_NODE = 74.2331
ARG_OF_PERICENTER = 13.6503
MEAN_ANOMALY   = 38.7219

EPHEMERIS_TYPE = 0
CLASSIFICATION_TYPE = U
NORAD_CAT_ID   = 25994
ELEMENT_SET_NO = 999
REV_AT_EPOCH   = 38781
BSTAR          = .89153499E-4
MEAN_MOTION_DOT = .392E-5
MEAN_MOTION_DDOT = 0

CCSDS_OMM_VERS = 2.0
CREATION_DATE  = 
ORIGINATOR     = 

OBJECT_NAME    = SL-16 R/B
OBJECT_ID      = 2000-006B
CENTER_NAME    = EARTH
REF_FRAME      = TEME
TIME_SYSTEM    = UTC
MEAN_ELEMENT_THEORY = SGP/SGP4

EPOCH          = 2026-01-18T22:05:28.541472
MEAN_MOTION    = 14.15812250
ECCENTRICITY   = .00188686
INCLINATION    = 71.0001
RA_OF_ASC_NODE = 202.4814
ARG_OF_PERICENTER = 258.7190
MEAN_ANOMALY   = 101.1812

EPHEMERIS_TYPE = 0
CLASSIFICATION_TYPE = U
NORAD_CAT_ID   = 26070
ELEMENT_SET_NO = 999
REV_AT_EPOCH   = 34151
BSTAR          = -.76429778E-4
MEAN_MOTION_DOT = -.198E-5
MEAN_MOTION_DDOT = 0

CCSDS_OMM_VERS = 2.0
CREATION_DATE  = 
ORIGINATOR     = 

OBJECT_NAME    = TITAN 4B R/B
OBJECT_ID      = 2000-047B
CENTER_NAME    = EARTH
REF_FRAME      = TEME
TIME_SYSTEM    = UTC
MEAN_ELEMENT_THEORY = SGP/SGP4

EPOCH          = 2026-01-18T22:18:17.823744
MEAN_MOTION    = 15.09076571
ECCENTRICITY   = .00368333
INCLINATION    = 67.9879
RA_OF_ASC_NODE = 180.3840
ARG_OF_PERICENTER = 98.1912
MEAN_ANOMALY   = 262.3417

EPHEMERIS_TYPE = 0
CLASSIFICATION_TYPE = U
NORAD_CAT_ID   = 26474
ELEMENT_SET_NO = 999
REV_AT_EPOCH   = 38540
BSTAR          = .2384598E-3
MEAN_MOTION_DOT = .3711E-4
MEAN_MOTION_DDOT = 0

CCSDS_OMM_VERS = 2.0
CREATION_DATE  = 
ORIGINATOR     = 

OBJECT_NAME    = ENVISAT
OBJECT_ID      = 2002-009A
CENTER_NAME    = EARTH
REF_FRAME      = TEME
TIME_SYSTEM    = UTC
MEAN_ELEMENT_THEORY = SGP/SGP4

EPOCH          = 2026-01-18T21:18:35.740224
MEAN_MOTION    = 14.39014397
ECCENTRICITY   = .00011579
INCLINATION    = 98.3651
RA_OF_ASC_NODE = 333.6970
ARG_OF_PERICENTER = 91.8955
MEAN_ANOMALY   = 282.8809

EPHEMERIS_TYPE = 0
CLASSIFICATION_TYPE = U
NORAD_CAT_ID   = 27386
ELEMENT_SET_NO = 999
REV_AT_EPOCH   = 25201
BSTAR          = .45706982E-4
MEAN_MOTION_DOT = .98E-6
MEAN_MOTION_DDOT = 0

