SL-16 R/B               
1 25400U 98043G   26018.84519485  .00000038  00000+0  34676-4 0  9996
2 25400  98.8176 331.8808 0010233 153.5325 206.6379 14.26035182431885
SL-16 R/B               
1 25407U 98045B   26018.98866691  .00000302  00000+0  17684-3 0  9997
2 25407  71.0117 286.0945 0005280 106.9225 253.2478 14.16182207420066
ISS (ZARYA)             
1 25544U 98067A   26018.88513458  .00012847  00000+0  23754-3 0  9994
2 25544  51.6336 318.5838 0007801  33.5888 326.5594 15.49391154548613
CZ-4B R/B               
1 25732U 99025C   26018.99952534  .00000049  00000+0  44489-4 0  9992
2 25732  98.6716  64.4367 0037951 127.0296 295.8559 14.18253096381127
OKEAN-O                 
1 25860U 99039A   26018.90177422  .00000687  00000+0  97254-4 0  9991
2 25860  97.9545  79.2729 0001770 104.8462 255.2946 14.80233278427024
SL-16 R/B               
1 25861U 99039B   26018.65868380  .00000518  00000+0  72628-4 0  9995
2 25861  98.0070  77.8029 0015979  62.3847 297.8986 14.81645663429459
DELTA 2 R/B             
1 25876U 99041E   26018.74410577  .00002409  00000+0  42499-3 0  9998
2 25876  51.7626 140.7159 0503426 200.8687 157.1024 14.11570800355971
HELIOS 1B               
1 25977U 99064A   26019.00585520  .00001607  00000+0  18393-3 0  9991
2 25977  98.1749 279.7789 0000832 135.6059 224.5223 14.87451919677875
TERRA                   
1 25994U 99068A   26018.92289689  .00000392  00000+0  89153-4 0  9994
2 25994  97.9692  74.2331 0002086  13.6503  38.7219 14.60947932387819
SL-16 R/B               
1 26070U 00006B   26018.92046923 -.00000198  00000+0 -76430-4 0  9996
2 26070  71.0001 202.4814 0018868 258.7190 101.1812 14.15812250341517
TITAN 4B R/B            
1 26474U 00047B   26018.92937296  .00003711  00000+0  23846-3 0  9995
2 26474  67.9879 180.3840 0036833  98.1912 262.3417 15.09076571385404
ENVISAT                 
1 27386U 02009A   26018.88791366  .00000098  00000+0  45707-4 0  9995
2 27386  98.3651 333.6970 0001157  91.8955 282.8809 14.39014397252010
